TEVEL2-2                
1 63219U 25052K   26166.22201124  .00014328  00000+0  43999-3 0  9994
2 63219  97.3886  62.1729 0004671 117.7960 242.3756 15.33820586 69791
TEVEL2-9                
1 63237U 25052AD  26166.26221951  .00013263  00000+0  43321-3 0  9994
2 63237  97.3947  61.5923 0007638 136.2266 223.9582 15.31847587 69733
TEVEL2-7                
1 63238U 25052AE  26166.23742285  .00012882  00000+0  42471-3 0  9991
2 63238  97.3951  61.4847 0007732 136.5558 223.6294 15.31552974 69724
TEVEL2-8                
1 63239U 25052AF  26166.50699842  .00013370  00000+0  44078-3 0  9990
2 63239  97.3950  61.7304 0007754 136.5757 223.6096 15.31544661 69768
INNOSAT 16 (RS92S7)     
1 64878U 25155C   26166.55891593  .00004909  00000+0  19677-3 0  9991
2 64878  97.4562 133.6919 0010352 181.0933 179.0284 15.25442165 80426
GEOSCAN 6 (RS92S6)      
1 64879U 25155D   26166.61207312  .00008518  00000+0  29452-3 0  9991
2 64879  97.4555 135.1578 0008143 167.4045 192.7400 15.30126109 80520
GEOSCAN 1 (RS92S1)      
1 64880U 25155E   26166.61513305  .00009128  00000+0  30970-3 0  9990
2 64880  97.4552 135.3075 0008087 167.1433 193.0015 15.30719580 80536
239ALFEROV (RS61S)      
1 64881U 25155F   26166.58701928  .00012431  00000+0  39309-3 0  9993
2 64881  97.4552 135.8353 0007827 164.0551 196.0939 15.32903030 80567
GEOSCAN 2 (RS92S2)      
1 64890U 25155Q   26166.60909622  .00009274  00000+0  31198-3 0  9996
2 64890  97.4551 135.4533 0007937 154.0724 206.0916 15.30990500 80546
GEOSCAN 5 (RS92S5)      
1 64891U 25155R   26166.57637504  .00011860  00000+0  37159-3 0  9997
2 64891  97.4545 135.9615 0006518 167.5337 192.6068 15.33220893 80574
GEOSCAN 4 (RS92S4)      
1 64892U 25155S   26166.56072898  .00012141  00000+0  37848-3 0  9994
2 64892  97.4548 135.9936 0006581 167.2755 192.8655 15.33374261 80578
GEOSCAN 3 (RS92S3)      
1 64893U 25155T   26166.56357943  .00014368  00000+0  42030-3 0  9994
2 64893  97.4536 136.4215 0006525 165.4324 194.7108 15.35349050 80600
INNOSAT 3 (RS92S0)      
1 64894U 25155U   26166.56253018  .00028811  00000+0  63807-3 0  9996
2 64894  97.4485 138.0196 0006242 155.2066 204.9483 15.43724588 80710
KNACKSAT-2              
1 67683U 98067XZ  26166.55673681  .00040813  00000+0  50084-3 0  9997
2 67683  51.6309 302.6773 0009315 207.8758 152.1737 15.59850380 20023
